GSAT0101 (PRN E11)      
1 37846U 11060A   22136.57597377 -.00000080  00000+0  00000+0 0  9997
2 37846  56.9847  22.2021 0004127  26.2306 333.8401  1.70474936 65678
GSAT0102 (PRN E12)      
1 37847U 11060B   22133.13963281 -.00000078  00000+0  00000+0 0  9995
2 37847  56.9843  22.2955 0004368 354.9876 102.7471  1.70475346 65622
GSAT0103 (PRN E19)      
1 38857U 12055A   22137.20229797  .00000079  00000+0  00000+0 0  9991
2 38857  55.1287 142.5572 0005550 268.9590  90.9969  1.70473629 59578
GSAT0104 (PRN E20)      
1 38858U 12055B   22137.17247304  .00000080  00000+0  00000+0 0  9994
2 38858  55.1291 142.5595 0003118 269.6714  90.3127  1.70473910 59576
GSAT0201 (PRN E18)      
1 40128U 14050A   22137.48646092 -.00000079  00000+0  00000+0 0  9994
2 40128  50.3035 333.5148 1629213 122.8992 253.8673  1.85518710 50642
GSAT0202 (PRN E14)      
1 40129U 14050B   22135.59156934 -.00000073  00000+0  00000+0 0  9990
2 40129  50.3302 332.6499 1626362 123.6387 252.9780  1.85519401 52771
GSAT0203 (PRN E26)      
1 40544U 15017A   22136.94335650 -.00000081  00000+0  00000+0 0  9998
2 40544  56.7800  22.2297 0001473 288.2854  71.7483  1.70475908 43762
GSAT0204 (PRN E22)      
1 40545U 15017B   22133.67653818 -.00000078  00000+0  00000+0 0  9991
2 40545  56.7845  22.3314 0001042 268.5488  91.4826  1.70475351  6759
GSAT0205 (PRN E24)      
1 40889U 15045A   22136.37648566 -.00000016  00000+0  00000+0 0  9999
2 40889  55.6449 262.8485 0004306  25.5776 334.4186  1.70473751 41564
GSAT0206 (PRN E30)      
1 40890U 15045B   22136.59726347 -.00000015  00000+0  00000+0 0  9998
2 40890  55.6437 262.8384 0002494  19.3760 340.6096  1.70473822 41592
GSAT0209 (PRN E09)      
1 41174U 15079A   22135.01216768  .00000096  00000+0  00000+0 0  9996
2 41174  55.1444 142.3206 0005556 302.1950  57.7887  1.70474513 39300
GSAT0208 (PRN E08)      
1 41175U 15079B   22136.40475815  .00000086  00000+0  00000+0 0  9990
2 41175  55.1433 142.2810 0004856 301.2683  58.7100  1.70474500 39905
GSAT0211 (PRN E02)      
1 41549U 16030A   22135.35111453 -.00000017  00000+0  00000+0 0  9996
2 41549  55.7906 262.8023 0002906 337.7337  22.2239  1.70475287 37203
GSAT0210 (PRN E01)      
1 41550U 16030B   22131.53770282 -.00000014  00000+0  00000+0 0  9992
2 41550  55.7928 262.9085 0001926 295.0803  64.8708  1.70475518 37135
GSAT0207 (PRN E07)      
1 41859U 16069A   22137.06473559  .00000080  00000+0  00000+0 0  9999
2 41859  54.8067 142.4531 0005809 291.6863  68.2724  1.70473126 33967
GSAT0212 (PRN E03)      
1 41860U 16069B   22136.91814039  .00000081  00000+0  00000+0 0  9997
2 41860  54.8045 142.4547 0004259 306.7983  53.1845  1.70473193 34211
GSAT0213 (PRN E04)      
1 41861U 16069C   22133.76411299  .00000100  00000+0  00000+0 0  9991
2 41861  54.8041 142.5473 0005561 274.9960  84.9860  1.70473379 34029
GSAT0214 (PRN E05)      
1 41862U 16069D   22133.32460219  .00000100  00000+0  00000+0 0  9990
2 41862  54.8025 142.5542 0004640 278.2135  81.7810  1.70473319 34144
GSAT0215 (PRN E21)      
1 43055U 17079A   22135.57502030 -.00000017  00000+0  00000+0 0  9993
2 43055  55.7657 262.6292 0001407 283.1902  76.7655  1.70474530 27523
GSAT0216 (PRN E25)      
1 43056U 17079B   22136.45385619 -.00000015  00000+0  00000+0 0  9992
2 43056  55.7659 262.6047 0003153 282.1662  77.7742  1.70474652 27552
GSAT0217 (PRN E27)      
1 43057U 17079C   22134.32774520 -.00000018  00000+0  00000+0 0  9993
2 43057  55.7641 262.6631 0002781 303.1455  56.7956  1.70474594 27507
GSAT0218 (PRN E31)      
1 43058U 17079D   22132.78801532 -.00000017  00000+0  00000+0 0  9995
2 43058  55.7662 262.7026 0003490 277.7418  82.1867  1.70474598 27501
GSAT0221 (PRN E15)      
1 43564U 18060A   22136.20606541 -.00000079  00000+0  00000+0 0  9990
2 43564  57.1621  22.0573 0002985 310.6620  49.3618  1.70475365 23719
GSAT0222 (PRN E33)      
1 43565U 18060B   22134.66616144 -.00000077  00000+0  00000+0 0  9997
2 43565  57.1642  22.0995 0003104 323.5442  36.4813  1.70475338 23736
GSAT0219 (PRN E36)      
1 43566U 18060C   22136.05992092 -.00000079  00000+0  00000+0 0  9994
2 43566  57.1648  22.0635 0002699 330.0455  29.9887  1.70474834 23737
GSAT0220 (PRN E13)      
1 43567U 18060D   22132.76044762 -.00000078  00000+0  00000+0 0  9990
2 43567  57.1635  22.1541 0002841 320.4699  39.5509  1.70475266 23663
GSAT0223                
1 49809U 21116A   22132.32642785 -.00000078  00000+0  00000+0 0  9992
2 49809  57.1557  22.0645 0000714 102.4898  81.1402  1.70475473  2663
GSAT0224                
1 49810U 21116B   22136.24958159 -.00000079  00000+0  00000+0 0  9995
2 49810  57.1584  21.9556 0001295  72.9906 110.8445  1.70475180  2752
